FENGYUN 1C DEB          
1 31829U 99025CHT 17345.52282615  .00000065  00000-0  82500-4 0  9999
2 31829  99.0700 244.7910 0172829 168.2074 316.3323 13.86154111536279
